H1 CPF 01  gfz 2021 11 13 01  8171 tandemx   
H2 1003001  6202 36605    2021 11 13 00 59 42 2021 11 18 00 00 42   120 1 1  0 0 0
H9
10 0 59534  59022.000000  0    5286003.929   1826445.898   4012691.249
10 0 59534  59142.000000  0    4803588.795   1459642.203   4707063.305
10 0 59534  59262.000000  0    4230664.352   1076563.738   5318588.734
10 0 59534  59382.000000  0    3577058.308    685410.164   5836538.851
10 0 59534  59502.000000  0    2854142.890    294331.318   6251840.753
10 0 59534  59622.000000  0    2074630.048    -88740.133   6557228.696
10 0 59534  59742.000000  0    1252344.425   -456247.365   6747365.711
10 0 59534  59862.000000  0     401975.104   -801157.335   6818932.850
10 0 59534  59982.000000  0    -461188.526  -1117094.450   6770682.553
10 0 59534  60102.000000  0   -1321531.214  -1398458.098   6603458.309
10 0 59534  60222.000000  0   -2163393.172  -1640522.002   6320179.559
10 0 59534  60342.000000  0   -2971352.838  -1839512.854   5925793.785
10 0 59534  60462.000000  0   -3730510.356  -1992669.434   5427198.410
10 0 59534  60582.000000  0   -4426767.745  -2098281.362   4833126.259
10 0 59534  60702.000000  0   -5047096.734  -2155705.192   4153997.254
10 0 59534  60822.000000  0   -5579789.645  -2165356.889   3401738.687
10 0 59534  60942.000000  0   -6014688.061  -2128681.232   2589578.028
10 0 59534  61062.000000  0   -6343385.735  -2048100.091   1731810.943
10 0 59534  61182.000000  0   -6559400.928  -1926939.700    843545.043
10 0 59534  61302.000000  0   -6658308.945  -1769337.399    -59573.949
10 0 59534  61422.000000  0   -6637834.941  -1580130.843   -961646.158
10 0 59534  61542.000000  0   -6497902.506  -1364732.699  -1846807.032
10 0 59534  61662.000000  0   -6240637.537  -1128994.575  -2699514.194
10 0 59534  61782.000000  0   -5870328.299   -879063.947  -3504825.952
10 0 59534  61902.000000  0   -5393343.186   -621236.751  -4248665.939
10 0 59534  62022.000000  0   -4818008.870   -361809.466  -4918068.259
10 0 59534  62142.000000  0   -4154452.320   -106935.068  -5501398.699
10 0 59534  62262.000000  0   -3414410.876    137513.885  -5988548.899
10 0 59534  62382.000000  0   -2611015.847    366072.575  -6371099.765
10 0 59534  62502.000000  0   -1758555.782    573798.566  -6642454.816
10 0 59534  62622.000000  0    -872221.804    756371.920  -6797943.385
10 0 59534  62742.000000  0      32159.696    910180.642  -6834891.375
10 0 59534  62862.000000  0     938402.104   1032388.815  -6752661.473
10 0 59534  62982.000000  0    1830240.956   1120986.965  -6552665.776
10 0 59534  63102.000000  0    2691620.344   1174825.074  -6238344.560
10 0 59534  63222.000000  0    3506977.317   1193626.653  -5815112.883
10 0 59534  63342.000000  0    4261519.435   1177983.524  -5290275.872
10 0 59534  63462.000000  0    4941493.770   1129331.785  -4672914.831
10 0 59534  63582.000000  0    5534442.984   1049909.471  -3973741.237
10 0 59534  63702.000000  0    6029441.452    942695.903  -3204920.356
10 0 59534  63822.000000  0    6417307.104    811333.751  -2379867.334
10 0 59534  63942.000000  0    6690784.893    660035.780  -1513017.305
10 0 59534  64062.000000  0    6844695.217    493477.430   -619571.825
10 0 59534  64182.000000  0    6876041.721    316677.985    284771.801
10 0 59534  64302.000000  0    6784077.268    134874.120   1184102.252
10 0 59534  64422.000000  0    6570325.695    -46612.896   2062582.589
10 0 59534  64542.000000  0    6238556.847   -222511.382   2904738.949
10 0 59534  64662.000000  0    5794715.433   -387732.231   3695741.390
10 0 59534  64782.000000  0    5246806.523   -537496.130   4421670.131
10 0 59534  64902.000000  0    4604743.290   -667452.582   5069764.093
10 0 59534  65022.000000  0    3880156.312   -773788.489   5628645.954
10 0 59534  65142.000000  0    3086172.706   -853321.708   6088518.162
10 0 59534  65262.000000  0    2237170.532   -903579.663   6441329.882
10 0 59534  65382.000000  0    1348513.374   -922860.946   6680912.314
10 0 59534  65502.000000  0     436268.043   -910278.976   6803081.739
10 0 59534  65622.000000  0    -483087.896   -865786.274   6805706.879
10 0 59534  65742.000000  0   -1392963.034   -790179.888   6688742.591
10 0 59534  65862.000000  0   -2276950.088   -685087.151   6454230.187
10 0 59534  65982.000000  0   -3119120.195   -552932.109   6106264.253
10 0 59534  66102.000000  0   -3904310.745   -396883.126   5650926.995
10 0 59534  66222.000000  0   -4618402.600   -220782.955   5096188.576
10 0 59534  66342.000000  0   -5248580.666    -29062.072   4451773.191
10 0 59534  66462.000000  0   -5783572.095    173362.855   3728992.847
10 0 59534  66582.000000  0   -6213856.798    381203.797   2940551.369
10 0 59534  66702.000000  0   -6531847.037    588927.059   2100322.158
10 0 59534  66822.000000  0   -6732030.844    790886.898   1223101.240
10 0 59534  66942.000000  0   -6811075.409    981463.178    324340.941
10 0 59534  67062.000000  0   -6767886.662   1155200.309   -580130.872
10 0 59534  67182.000000  0   -6603622.498   1306943.497  -1474398.966
10 0 59534  67302.000000  0   -6321660.829   1431968.283  -2342748.380
10 0 59534  67422.000000  0   -5927525.333   1526102.095  -3169947.706
10 0 59534  67542.000000  0   -5428766.523   1585832.652  -3941522.252
10 0 59534  67662.000000  0   -4834804.084   1608400.521  -4644007.570
10 0 59534  67782.000000  0   -4156736.484   1591875.056  -5265180.535
10 0 59534  67902.000000  0   -3407122.658   1535211.683  -5794264.046
10 0 59534  68022.000000  0   -2599742.207   1438289.746  -6222103.918
10 0 59534  68142.000000  0   -1749337.855   1301930.227  -6541316.617
10 0 59534  68262.000000  0    -871344.597   1127894.141  -6746404.699
10 0 59534  68382.000000  0      18386.962    918860.609  -6833840.406
10 0 59534  68502.000000  0     903869.338    678386.551  -6802119.351
10 0 59534  68622.000000  0    1769258.482    410847.413  -6651786.153
10 0 59534  68742.000000  0    2599131.754    121359.396  -6385425.725
10 0 59534  68862.000000  0    3378757.393   -184314.690  -6007623.888
10 0 59534  68982.000000  0    4094353.246   -499875.763  -5524895.673
10 0 59534  69102.000000  0    4733329.537   -818612.752  -4945583.973
10 0 59534  69222.000000  0    5284515.586  -1133539.788  -4279727.852
10 0 59534  69342.000000  0    5738363.210  -1437543.346  -3538898.736
10 0 59534  69462.000000  0    6087122.534  -1723536.577  -2736007.720
10 0 59534  69582.000000  0    6324986.282  -1984617.904  -1885085.830
10 0 59534  69702.000000  0    6448198.122  -2214230.006  -1001040.171
10 0 59534  69822.000000  0    6455121.877  -2406314.733    -99390.848
10 0 59534  69942.000000  0    6346269.423  -2555460.741    804006.817
10 0 59534  70062.000000  0    6124285.572  -2657039.084   1693249.125
10 0 59534  70182.000000  0    5793889.141  -2707323.692   2552673.558
10 0 59534  70302.000000  0    5361772.045  -2703593.524   3367143.264
10 0 59534  70422.000000  0    4836458.384  -2644212.708   4122321.010
10 0 59534  70542.000000  0    4228129.483  -2528687.376   4804924.399
10 0 59534  70662.000000  0    3548420.005  -2357699.546   5402961.849
10 0 59534  70782.000000  0    2810185.789  -2133115.673   5905942.684
10 0 59534  70902.000000  0    2027253.307  -1857969.579   6305056.348
10 0 59534  71022.000000  0    1214155.563  -1536421.870   6593321.133
10 0 59534  71142.000000  0     385858.771  -1173696.145   6765700.464
10 0 59534  71262.000000  0    -442514.634   -775992.761   6819185.117
10 0 59534  71382.000000  0   -1255961.384   -350382.171   6752841.535
10 0 59534  71502.000000  0   -2039867.802     95320.484   6567826.984
10 0 59534  71622.000000  0   -2780271.272    552698.363   6267370.864
10 0 59534  71742.000000  0   -3464109.262   1012890.862   5856722.433
10 0 59534  71862.000000  0   -4079452.458   1466763.971   5343065.274
10 0 59534  71982.000000  0   -4615718.414   1905090.540   4735398.044
10 0 59534  72102.000000  0   -5063860.730   2318737.678   4044381.830
10 0 59534  72222.000000  0   -5416529.101   2698857.112   3282156.310
10 0 59534  72342.000000  0   -5668197.072   3037073.773   2462127.984
10 0 59534  72462.000000  0   -5815255.625   3325669.186   1598733.776
10 0 59534  72582.000000  0   -5856069.598   3557755.591    707182.079
10 0 59534  72702.000000  0   -5790992.565   3727434.449   -196822.986
10 0 59534  72822.000000  0   -5622342.113   3829935.729  -1097366.337
10 0 59534  72942.000000  0   -5354336.062   3861735.618  -1978611.132
10 0 59534  73062.000000  0   -4992989.182   3820648.068  -2825086.871
10 0 59534  73182.000000  0   -4545974.146   3705888.130  -3621966.744
10 0 59534  73302.000000  0   -4022451.356   3518105.912  -4355329.315
10 0 59534  73422.000000  0   -3432873.803   3259391.815  -5012399.174
10 0 59534  73542.000000  0   -2788771.241   2933252.872  -5581762.706
10 0 59534  73662.000000  0   -2102521.140   2544562.539  -6053557.249
10 0 59534  73782.000000  0   -1387107.643   2099483.999  -6419632.208
10 0 59534  73902.000000  0    -655875.636   1605368.835  -6673677.364
10 0 59534  74022.000000  0      77714.833   1070634.700  -6811320.860
10 0 59534  74142.000000  0     800330.358    504623.117  -6830195.933
10 0 59534  74262.000000  0    1499001.004    -82560.274  -6729978.976
10 0 59534  74382.000000  0    2161348.336   -680222.486  -6512393.349
10 0 59534  74502.000000  0    2775799.341  -1277272.601  -6181182.925
10 0 59534  74622.000000  0    3331786.149  -1862422.329  -5742054.443
10 0 59534  74742.000000  0    3819927.577  -2424394.520  -5202590.193
10 0 59534  74862.000000  0    4232191.779  -2952139.354  -4572128.598
10 0 59534  74982.000000  0    4562032.855  -3435051.719  -3861612.337
10 0 59534  75102.000000  0    4804501.035  -3863184.956  -3083408.450
10 0 59534  75222.000000  0    4956324.922  -4227458.371  -2251100.444
10 0 59534  75342.000000  0    5015961.544  -4519852.530  -1379254.272
10 0 59534  75462.000000  0    4983612.979  -4733588.127   -483162.969
99
